#aV2007 10 30  0  0   .00000000      96 DD+AD WGS84 FIT  NGA
## 1451 172800.00000000   900.00000000 54403  .0000000000000
+   31     1  2  3  4  5  6  7  8  9 10 11 12 13 14 15 16 17
+         18 19 20 21 22 23 24 25 26 27 28 30 31 32  0  0  0
+          0  0  0  0  0  0  0  0  0  0  0  0  0  0  0  0  0
+          0  0  0  0  0  0  0  0  0  0  0  0  0  0  0  0  0
+          0  0  0  0  0  0  0  0  0  0  0  0  0  0  0  0  0
++         0  0  0  0  0  0  0  0  0  0  0  0  0  0  0  0  0
++         0  0  0  0  0  0  0  0  0  0  0  0  0  0  0  0  0
++         0  0  0  0  0  0  0  0  0  0  0  0  0  0  0  0  0
++         0  0  0  0  0  0  0  0  0  0  0  0  0  0  0  0  0
++         0  0  0  0  0  0  0  0  0  0  0  0  0  0  0  0  0
%c cc cc ccc ccc cccc cccc cccc cccc ccccc ccccc ccccc ccccc
%c cc cc ccc ccc cccc cccc cccc cccc ccccc ccccc ccccc ccccc
%f  0.0000000  0.000000000  0.00000000000  0.000000000000000
%f  0.0000000  0.000000000  0.00000000000  0.000000000000000
%i    0    0    0    0      0      0      0      0         0
%i    0    0    0    0      0      0      0      0         0
/*      NGA, ST. LOUIS,MO.                                  
/*   EPHEMERIS COMPUTED FROM  3 DAYS OF DATA                
/* CCCCCCCCCCCCCCCCCCCCCCCCCCCCCCCCCCCCCCCCCCCCCCCCCCCCCCCCC
/* CCCCCCCCCCCCCCCCCCCCCCCCCCCCCCCCCCCCCCCCCCCCCCCCCCCCCCCCC
*  2007 10 30  5 15   .00000000                                                 
P  1 -16640.262017 -10398.530199 -17721.525685    163.344746                    
V  1  -7415.372219 -21631.741197  19342.292630       .031228                    
P  2  19189.338203  -5331.476631 -17609.552833    147.359499                    
V  2 -10964.997490  19360.382928 -18313.475437       .027768                    
P  3 -17131.908856    760.483061  20119.524905    136.874423                    
V  3 -12390.341916 -23033.416971  -9222.587964       .053074                    
P  4  14387.601260   6564.442735 -21443.202789    -18.963330                    
V  4 -15703.295055  22059.049216  -3435.189306      -.040220                    
P  5   6318.148815 -15307.226842 -21003.128531    505.466157                    
V  5  26173.430919    908.301207   7445.387076       .262353                    
P  6  -5705.900680 -24540.097762  -8180.305204    228.026792                    
V  6   7933.026024   7947.922255 -28764.665755      -.072106                    
P  7  -8228.123577 -24434.057694  -5973.485380    -35.660118                    
V  7   6973.270980   5373.498916 -29944.999257       .098595                    
P  8   7231.398501  13885.220734  21271.126191   -128.132607                    
V  8 -17414.747823  21025.205563  -8216.875078      -.011550                    
P  9  14422.651388 -22172.241041     -4.683119     94.362032                    
V  9   1903.665928   2110.513663  32051.088268       .017488                    
P 10  25911.831237  -1364.605961   6306.575741   -125.391710                    
V 10   7766.071027   3202.377429 -30327.085023      -.132800                    
P 11 -11096.913979  23944.681195    -78.441034     25.426906                    
V 11  -4697.217763  -2237.388539  30371.706408       .002966                    
P 12  13158.135829 -12359.275015 -19371.048009   -346.575237                    
V 12  24584.755085   3559.658692  14427.075249      -.012974                    
P 13   5157.530619  25029.986134  -7387.463634    217.500385                    
V 13  -4976.872322  -7901.089241 -30649.400227       .027139                    
P 14 -15107.451558 -19885.870191  -9089.379940   -323.464028                    
V 14  -3053.521196 -11336.456172  29466.154898       .025299                    
P 15  10538.831239 -12350.683437  21049.742480    -96.225895                    
V 15  12066.834259  23802.115012   7901.721248       .129663                    
P 16 -26553.377421  -1871.833248   1394.859953    122.261712                    
V 16  -1393.301472  -2737.184163 -31649.846165       .019529                    
P 17  15161.054777  20489.759418  -7705.857340     50.317259                    
V 17   1683.173559   9961.718299  29591.223646      -.012010                    
P 18  -7548.126117 -15643.415822  20350.072648   -228.490392                    
V 18  25316.479064   2400.548198  10979.911501       .021306                    
P 19 -11429.465895  11578.194547  21055.094874      4.142501                    
V 19 -10253.589935 -24528.509801   8103.401580       .021596                    
P 20  -9707.673887  13953.890017 -20501.348552    127.077638                    
V 20 -25695.876014  -2998.132617  10214.582356      -.006375                    
P 21   1005.986696 -20968.764989  16063.268043     77.090993                    
V 21  14386.848156 -14748.935551 -20928.542754      -.003919                    
P 22 -20173.862899 -11961.272462  12670.220791    201.843348                    
V 22  16038.479278   -346.032932  25496.532807       .009511                    
P 23  -3403.164692  20191.892898 -16853.425206    304.616320                    
V 23 -10462.190861 -18676.598772 -20571.135847       .035079                    
P 24  11468.312349 -23034.627933   7359.923382     42.251787                    
V 24   7588.053133  -5518.700228 -29585.468594       .029498                    
P 25  -4463.785043  23821.875099  11403.888685    470.841893                    
V 25  -8774.776425  10966.404075 -27064.554118       .066394                    
P 26  12113.293233  -7874.751096  21794.634311     78.556789                    
V 26  11416.525112  26382.395957   3652.774112       .124726                    
P 27   1068.759306  20735.506802  17099.190262    144.499993                    
V 27 -12169.766742  16623.189057 -20382.218563       .024200                    
P 28  17873.915850  12895.806478  15416.830045     -9.483581                    
V 28 -18882.136043   -527.071423  22509.043852      -.006911                    
P 30   -501.279838 -15706.184755 -21748.839945     50.684679                    
V 30  26850.969638   1305.196047  -1484.650664       .013219                    
P 31 -15442.943882  -3468.801041 -21139.150084      4.261612                    
V 31  15140.619833 -22708.658550  -7192.883674      -.014443                    
P 32 -25370.909456  -6923.265191   3558.026242    119.532224                    
V 32   4329.649234  -1798.593433  31673.828656       .141927                    
EOF
